ONEWEB-0056             
1 45159U 20008AE  24341.88378300 -.00000625  00000+0 -18254-2 0  9991
2 45159  87.8888 147.2582 0001568  93.1034 267.0273 13.10371650235196
ONEWEB-0057             
1 45160U 20008AF  24341.89042126 -.00000400  00000+0 -11807-2 0  9996
2 45160  87.8894 147.2634 0001529  88.5983 271.5319 13.10376170235363
ONEWEB-0058             
1 45161U 20008AG  24341.80092031 -.00000605  00000+0 -17694-2 0  9995
2 45161  87.8880 147.3053 0001398  90.1437 269.9850 13.10371675235425
ONEWEB-0059             
1 45162U 20008AH  24341.79746540 -.00000513  00000+0 -15058-2 0  9995
2 45162  87.8887 147.2944 0001358  91.4835 268.6448 13.10372272235325
ONEWEB-0062             
1 45163U 20008AJ  24341.90040035  .00000089  00000+0  21915-3 0  9991
2 45163  87.8891 147.2568 0001191 100.4226 259.7036 13.10374851235209
ONEWEB-0065             
1 45164U 20008AK  24341.80244582 -.00000556  00000+0 -16299-2 0  9993
2 45164  87.8890 147.2899 0001644  92.5505 267.5810 13.10373516234887
ONEWEB-0066             
1 45424U 20020A   24341.87508967  .00000469  00000+0  12879-2 0  9994
2 45424  87.8886 132.1129 0002095  99.2416 260.8949 13.11418798229635
ONEWEB-0067             
1 45425U 20020B   24341.68362535 -.00000479  00000+0 -13867-2 0  9994
2 45425  87.8874 132.0891 0001616  88.9848 271.1465 13.11415525229666
